start=new Date('2022-01-30T00:00:00.000Z').valueOf();
sats=[{"MEAN_MOTION_DDOT":"0.0000000000000","DECAY_DATE":null,"PERIOD":"95.592","MEAN_ANOMALY":"293.8115","INCLINATION":"53.0556","PERIAPSIS":"546.285","MEAN_ELEMENT_THEORY":"SGP4","NORAD_CAT_ID":"44765","EPHEMERIS_TYPE":"0","TLE_LINE2":"2 44765  53.0556  99.4044 0001366  66.3017 293.8115 15.06394433122418","OBJECT_ID":"2019-074BE","ELEMENT_SET_NO":"999","FILE":"3287083","BSTAR":"0.00004731400000","OBJECT_TYPE":"PAYLOAD","MEAN_MOTION":"15.06394433","TLE_LINE1":"1 44765U 19074BE  22029.90545975  .00000423  00000-0  47314-4 0  9998","LAUNCH_DATE":"2019-11-11","GP_ID":"194911822","SITE":"AFETR","OBJECT_NAME":"STARLINK-1060","SEMIMAJOR_AXIS":"6925.366","REF_FRAME":"TEME","RA_OF_ASC_NODE":"99.4044","CENTER_NAME":"EARTH","TIME_SYSTEM":"UTC","ARG_OF_PERICENTER":"66.3017","RCS_SIZE":"LARGE","REV_AT_EPOCH":"12241","EPOCH":"2022-01-29T21:43:51.722400","ECCENTRICITY":"0.00013660","APOAPSIS":"548.177","CLASSIFICATION_TYPE":"U","MEAN_MOTION_DOT":"0.00000423","COUNTRY_CODE":"US"},{"TLE_LINE2":"2 44766  53.0549 120.3033 0001582  81.0927 279.0241 15.06399901122115","EPHEMERIS_TYPE":"0","NORAD_CAT_ID":"44766","MEAN_MOTION_DDOT":"0.0000000000000","PERIAPSIS":"546.118","MEAN_ELEMENT_THEORY":"SGP4","INCLINATION":"53.0549","PERIOD":"95.592","MEAN_ANOMALY":"279.0241","DECAY_DATE":null,"GP_ID":"194911069","LAUNCH_DATE":"2019-11-11","SITE":"AFETR","OBJECT_NAME":"STARLINK-1061","SEMIMAJOR_AXIS":"6925.349","REF_FRAME":"TEME","ELEMENT_SET_NO":"999","OBJECT_ID":"2019-074BF","TLE_LINE1":"1 44766U 19074BF  22029.70457871  .00006037  00000-0  42383-3 0  9991","OBJECT_TYPE":"PAYLOAD","MEAN_MOTION":"15.06399901","BSTAR":"0.00042383000000","FILE":"3287083","REV_AT_EPOCH":"12211","RCS_SIZE":"LARGE","ARG_OF_PERICENTER":"81.0927","TIME_SYSTEM":"UTC","CENTER_NAME":"EARTH","RA_OF_ASC_NODE":"120.3033","MEAN_MOTION_DOT":"0.00006037","COUNTRY_CODE":"US","EPOCH":"2022-01-29T16:54:35.600544","CLASSIFICATION_TYPE":"U","APOAPSIS":"548.309","ECCENTRICITY":"0.00015820"},{"MEAN_MOTION_DOT":"0.00002139","COUNTRY_CODE":"US","EPOCH":"2022-01-29T15:08:25.852992","CLASSIFICATION_TYPE":"U","APOAPSIS":"548.146","ECCENTRICITY":"0.00013480","REV_AT_EPOCH":"12210","RCS_SIZE":"LARGE","ARG_OF_PERICENTER":"66.5792","TIME_SYSTEM":"UTC","CENTER_NAME":"EARTH","RA_OF_ASC_NODE":"120.6361","GP_ID":"194911320","LAUNCH_DATE":"2019-11-11","SEMIMAJOR_AXIS":"6925.347","SITE":"AFETR","REF_FRAME":"TEME","OBJECT_NAME":"STARLINK-1062","ELEMENT_SET_NO":"999","OBJECT_ID":"2019-074BG","TLE_LINE1":"1 44767U 19074BG  22029.63085478  .00002139  00000-0  16242-3 0  9998","OBJECT_TYPE":"PAYLOAD","MEAN_MOTION":"15.06400467","FILE":"3287083","BSTAR":"0.00016242000000","TLE_LINE2":"2 44767  53.0539 120.6361 0001348  66.5792 293.5338 15.06400467122107","EPHEMERIS_TYPE":"0","NORAD_CAT_ID":"44767","MEAN_MOTION_DDOT":"0.0000000000000","MEAN_ELEMENT_THEORY":"SGP4","PERIAPSIS":"546.279","INCLINATION":"53.0539","MEAN_ANOMALY":"293.5338","PERIOD":"95.592","DECAY_DATE":null},{"RA_OF_ASC_NODE":"120.5406","CENTER_NAME":"EARTH","TIME_SYSTEM":"UTC","ARG_OF_PERICENTER":"68.4913","RCS_SIZE":"LARGE","REV_AT_EPOCH":"12211","ECCENTRICITY":"0.00014360","APOAPSIS":"548.193","CLASSIFICATION_TYPE":"U","EPOCH":"2022-01-29T15:40:16.835232","COUNTRY_CODE":"US","MEAN_MOTION_DOT":"0.00008405","DECAY_DATE":null,"MEAN_ANOMALY":"291.6229","PERIOD":"95.592","INCLINATION":"53.0528","PERIAPSIS":"546.204","MEAN_ELEMENT_THEORY":"SGP4","MEAN_MOTION_DDOT":"0.0000000000000","NORAD_CAT_ID":"44768","TLE_LINE2":"2 44768  53.0528 120.5406 0001436  68.4913 291.6229 15.06405010122117","EPHEMERIS_TYPE":"0","FILE":"3287083","BSTAR":"0.00058242000000","OBJECT_TYPE":"PAYLOAD","MEAN_MOTION":"15.06405010","TLE_LINE1":"1 44768U 19074BH  22029.65297263  .00008405  00000-0  58242-3 0  9996","OBJECT_ID":"2019-074BH","ELEMENT_SET_NO":"999","SITE":"AFETR","REF_FRAME":"TEME","SEMIMAJOR_AXIS":"6925.333","OBJECT_NAME":"STARLINK-1063","LAUNCH_DATE":"2019-11-11","GP_ID":"194911572"},{"MEAN_MOTION_DOT":"0.00277841","COUNTRY_CODE":"US","EPOCH":"2022-01-29T19:20:27.645792","CLASSIFICATION_TYPE":"U","ECCENTRICITY":"0.00046030","APOAPSIS":"318.674","RCS_SIZE":"LARGE","REV_AT_EPOCH":"12305","TIME_SYSTEM":"UTC","ARG_OF_PERICENTER":"293.9394","CENTER_NAME":"EARTH","RA_OF_ASC_NODE":"58.9631","LAUNCH_DATE":"2019-11-11","GP_ID":"194912322","OBJECT_NAME":"STARLINK-1064","SITE":"AFETR","SEMIMAJOR_AXIS":"6693.728","REF_FRAME":"TEME","ELEMENT_SET_NO":"999","OBJECT_ID":"2019-074BJ","MEAN_MOTION":"15.85260492","OBJECT_TYPE":"PAYLOAD","TLE_LINE1":"1 44769U 19074BJ  22029.80587553  .00277841  00000-0  11112-2 0  9994","BSTAR":"0.00111120000000","FILE":"3287083","NORAD_CAT_ID":"44769","TLE_LINE2":"2 44769  53.0537  58.9631 0004603 293.9394  66.1147 15.85260492123057","EPHEMERIS_TYPE":"0","MEAN_MOTION_DDOT":"0.0000000000000","INCLINATION":"53.0537","PERIAPSIS":"312.512","MEAN_ELEMENT_THEORY":"SGP4","DECAY_DATE":null,"MEAN_ANOMALY":"66.1147","PERIOD":"90.837"},{"SITE":"AFETR","SEMIMAJOR_AXIS":"6913.416","REF_FRAME":"TEME","OBJECT_NAME":"STARLINK-1065","GP_ID":"194910570","LAUNCH_DATE":"2019-11-11","TLE_LINE1":"1 44770U 19074BK  22029.92197173  .00009725  00000-0  60373-3 0  9992","OBJECT_TYPE":"PAYLOAD","MEAN_MOTION":"15.10301794","FILE":"3287083","BSTAR":"0.00060373000000","ELEMENT_SET_NO":"999","OBJECT_ID":"2019-074BK","TLE_LINE2":"2 44770  53.0027 111.0506 0001500  60.4749 299.6391 15.10301794122231","EPHEMERIS_TYPE":"0","NORAD_CAT_ID":"44770","PERIAPSIS":"534.244","MEAN_ELEMENT_THEORY":"SGP4","INCLINATION":"53.0027","MEAN_ANOMALY":"299.6391","PERIOD":"95.345","DECAY_DATE":null,"MEAN_MOTION_DDOT":"0.0000000000000","COUNTRY_CODE":"US","MEAN_MOTION_DOT":"0.00009725","CLASSIFICATION_TYPE":"U","APOAPSIS":"536.318","ECCENTRICITY":"0.00015000","EPOCH":"2022-01-29T22:07:38.357472","REV_AT_EPOCH":"12223","RCS_SIZE":"LARGE","ARG_OF_PERICENTER":"60.4749","TIME_SYSTEM":"UTC","CENTER_NAME":"EARTH","RA_OF_ASC_NODE":"111.0506"},{"GP_ID":"194888951","LAUNCH_DATE":"2019-11-11","SITE":"AFETR","SEMIMAJOR_AXIS":"6925.349","OBJECT_NAME":"STARLINK-1067","REF_FRAME":"TEME","ELEMENT_SET_NO":"999","OBJECT_ID":"2019-074BL","TLE_LINE1":"1 44771U 19074BL  22029.50921214  .00001642  00000-0  12907-3 0  9998","OBJECT_TYPE":"PAYLOAD","MEAN_MOTION":"15.06399853","FILE":"3286960","BSTAR":"0.00012907000000","TLE_LINE2":"2 44771  53.0541 121.1883 0001241  56.6075 303.5032 15.06399853122251","EPHEMERIS_TYPE":"0","NORAD_CAT_ID":"44771","MEAN_MOTION_DDOT":"0.0000000000000","MEAN_ELEMENT_THEORY":"SGP4","PERIAPSIS":"546.355","INCLINATION":"53.0541","MEAN_ANOMALY":"303.5032","PERIOD":"95.592","DECAY_DATE":null,"MEAN_MOTION_DOT":"0.00001642","COUNTRY_CODE":"US","EPOCH":"2022-01-29T12:13:15.928896","CLASSIFICATION_TYPE":"U","APOAPSIS":"548.073","ECCENTRICITY":"0.00012410","REV_AT_EPOCH":"12225","RCS_SIZE":"LARGE","ARG_OF_PERICENTER":"56.6075","TIME_SYSTEM":"UTC","CENTER_NAME":"EARTH","RA_OF_ASC_NODE":"121.1883"},{"OBJECT_ID":"2019-074BM","ELEMENT_SET_NO":"999","BSTAR":"0.00014305000000","FILE":"3287083","MEAN_MOTION":"15.06392693","OBJECT_TYPE":"PAYLOAD","TLE_LINE1":"1 44772U 19074BM  22029.89808435  .00001849  00000-0  14305-3 0  9993","LAUNCH_DATE":"2019-11-11","GP_ID":"194912072","SEMIMAJOR_AXIS":"6925.371","SITE":"AFETR","REF_FRAME":"TEME","OBJECT_NAME":"STARLINK-1068","MEAN_MOTION_DDOT":"0.0000000000000","DECAY_DATE":null,"MEAN_ANOMALY":"283.5192","PERIOD":"95.593","INCLINATION":"53.0551","MEAN_ELEMENT_THEORY":"SGP4","PERIAPSIS":"546.247","NORAD_CAT_ID":"44772","EPHEMERIS_TYPE":"0","TLE_LINE2":"2 44772  53.0551  99.4497 0001428  76.5956 283.5192 15.06392693122414","EPOCH":"2022-01-29T21:33:14.487840","ECCENTRICITY":"0.00014280","APOAPSIS":"548.225","CLASSIFICATION_TYPE":"U","MEAN_MOTION_DOT":"0.00001849","COUNTRY_CODE":"US","RA_OF_ASC_NODE":"99.4497","CENTER_NAME":"EARTH","TIME_SYSTEM":"UTC","ARG_OF_PERICENTER":"76.5956","RCS_SIZE":"LARGE","REV_AT_EPOCH":"12241"},{"EPOCH":"2022-01-29T20:21:35.991936","ECCENTRICITY":"0.00018100","APOAPSIS":"548.491","CLASSIFICATION_TYPE":"U","MEAN_MOTION_DOT":"-0.00000446","COUNTRY_CODE":"US","RA_OF_ASC_NODE":"239.6678","CENTER_NAME":"EARTH","TIME_SYSTEM":"UTC","ARG_OF_PERICENTER":"75.4564","RCS_SIZE":"LARGE","REV_AT_EPOCH":"11378","OBJECT_ID":"2020-001A","ELEMENT_SET_NO":"999","BSTAR":"-0.00001105000000","FILE":"3287083","OBJECT_TYPE":"PAYLOAD","MEAN_MOTION":"15.06392220","TLE_LINE1":"1 44914U 20001A   22029.84833324 -.00000446  00000-0 -11050-4 0  9992","LAUNCH_DATE":"2020-01-07","GP_ID":"194911837","REF_FRAME":"TEME","SITE":"AFETR","SEMIMAJOR_AXIS":"6925.372","OBJECT_NAME":"STARLINK-1073","MEAN_MOTION_DDOT":"0.0000000000000","DECAY_DATE":null,"MEAN_ANOMALY":"284.6626","PERIOD":"95.593","INCLINATION":"53.0531","MEAN_ELEMENT_THEORY":"SGP4","PERIAPSIS":"545.984","NORAD_CAT_ID":"44914","EPHEMERIS_TYPE":"0","TLE_LINE2":"2 44914  53.0531 239.6678 0001810  75.4564 284.6626 15.06392220113787"},{"TLE_LINE1":"1 44915U 20001B   22029.87782873  .00001419  00000-0  11419-3 0  9995","OBJECT_TYPE":"PAYLOAD","MEAN_MOTION":"15.06391982","FILE":"3287083","BSTAR":"0.00011419000000","ELEMENT_SET_NO":"999","OBJECT_ID":"2020-001B","SEMIMAJOR_AXIS":"6925.373","SITE":"AFETR","REF_FRAME":"TEME","OBJECT_NAME":"STARLINK-1084","GP_ID":"194911084","LAUNCH_DATE":"2020-01-07","PERIAPSIS":"545.962","MEAN_ELEMENT_THEORY":"SGP4","INCLINATION":"53.0523","MEAN_ANOMALY":"280.6527","PERIOD":"95.593","DECAY_DATE":null,"MEAN_MOTION_DDOT":"0.0000000000000","TLE_LINE2":"2 44915  53.0523 239.5317 0001842  79.4670 280.6527 15.06391982113796","EPHEMERIS_TYPE":"0","NORAD_CAT_ID":"44915","CLASSIFICATION_TYPE":"U","APOAPSIS":"548.514","ECCENTRICITY":"0.00018420","EPOCH":"2022-01-29T21:04:04.402272","COUNTRY_CODE":"US","MEAN_MOTION_DOT":"0.00001419","CENTER_NAME":"EARTH","RA_OF_ASC_NODE":"239.5317","REV_AT_EPOCH":"11379","RCS_SIZE":"LARGE","ARG_OF_PERICENTER":"79.4670","TIME_SYSTEM":"UTC"}];
